start=new Date('2022-06-24T00:00:00.000Z').valueOf();
sats=[{"TIME_SYSTEM":"UTC","REF_FRAME":"TEME","SEMIMAJOR_AXIS":"6925.378","ECCENTRICITY":"0.00014560","NORAD_CAT_ID":"45586","REV_AT_EPOCH":"12121","BSTAR":"0.00006015900000","FILE":"3500539","COUNTRY_CODE":"US","CLASSIFICATION_TYPE":"U","APOAPSIS":"548.252","PERIAPSIS":"546.235","MEAN_MOTION_DDOT":"0.0000000000000","MEAN_ANOMALY":"287.3918","OBJECT_TYPE":"PAYLOAD","MEAN_MOTION_DOT":"0.00000614","EPOCH":"2022-06-23T08:14:47.443488","RCS_SIZE":"LARGE","MEAN_ELEMENT_THEORY":"SGP4","RA_OF_ASC_NODE":"41.0176","PERIOD":"95.593","INCLINATION":"53.0555","TLE_LINE2":"2 45586  53.0555  41.0176 0001456  72.7230 287.3918 15.06390249121213","TLE_LINE1":"1 45586U 20025BH  22174.34360467  .00000614  00000-0  60159-4 0  9992","OBJECT_NAME":"STARLINK-1347","DECAY_DATE":null,"MEAN_MOTION":"15.06390249","SITE":"AFETR","ARG_OF_PERICENTER":"72.7230","GP_ID":"206682196","OBJECT_ID":"2020-025BH","EPHEMERIS_TYPE":"0","CENTER_NAME":"EARTH","ELEMENT_SET_NO":"999","LAUNCH_DATE":"2020-04-22"},{"TLE_LINE2":"2 45587  53.0562  39.3492 0001637  70.1602 289.9564 15.06396058120688","DECAY_DATE":null,"OBJECT_NAME":"STARLINK-1349","TLE_LINE1":"1 45587U 20025BJ  22174.71219359  .00000563  00000-0  56693-4 0  9998","OBJECT_ID":"2020-025BJ","GP_ID":"206690875","ARG_OF_PERICENTER":"70.1602","MEAN_MOTION":"15.06396058","SITE":"AFETR","LAUNCH_DATE":"2020-04-22","ELEMENT_SET_NO":"999","CENTER_NAME":"EARTH","EPHEMERIS_TYPE":"0","MEAN_MOTION_DOT":"0.00000563","MEAN_ELEMENT_THEORY":"SGP4","EPOCH":"2022-06-23T17:05:33.526176","RCS_SIZE":"LARGE","INCLINATION":"53.0562","PERIOD":"95.592","RA_OF_ASC_NODE":"39.3492","FILE":"3500646","BSTAR":"0.00005669300000","REV_AT_EPOCH":"12068","CLASSIFICATION_TYPE":"U","COUNTRY_CODE":"US","MEAN_MOTION_DDOT":"0.0000000000000","PERIAPSIS":"546.092","APOAPSIS":"548.359","MEAN_ANOMALY":"289.9564","OBJECT_TYPE":"PAYLOAD","TIME_SYSTEM":"UTC","NORAD_CAT_ID":"45587","ECCENTRICITY":"0.00016370","SEMIMAJOR_AXIS":"6925.361","REF_FRAME":"TEME"},{"MEAN_ANOMALY":"279.7930","OBJECT_TYPE":"PAYLOAD","MEAN_MOTION_DDOT":"0.0000000000000","PERIAPSIS":"546.135","APOAPSIS":"548.303","COUNTRY_CODE":"US","CLASSIFICATION_TYPE":"U","BSTAR":"-0.00000801590000","REV_AT_EPOCH":"12122","FILE":"3500539","SEMIMAJOR_AXIS":"6925.354","REF_FRAME":"TEME","ECCENTRICITY":"0.00015650","NORAD_CAT_ID":"45588","TIME_SYSTEM":"UTC","ELEMENT_SET_NO":"999","EPHEMERIS_TYPE":"0","CENTER_NAME":"EARTH","LAUNCH_DATE":"2020-04-22","MEAN_MOTION":"15.06398189","SITE":"AFETR","GP_ID":"206683198","OBJECT_ID":"2020-025BK","ARG_OF_PERICENTER":"80.3236","OBJECT_NAME":"STARLINK-1360","TLE_LINE1":"1 45588U 20025BK  22174.35834257 -.00000401  00000-0 -80159-5 0  9997","DECAY_DATE":null,"TLE_LINE2":"2 45588  53.0570  40.9519 0001565  80.3236 279.7930 15.06398189121224","RA_OF_ASC_NODE":"40.9519","INCLINATION":"53.0570","PERIOD":"95.592","RCS_SIZE":"LARGE","EPOCH":"2022-06-23T08:36:00.798048","MEAN_ELEMENT_THEORY":"SGP4","MEAN_MOTION_DOT":"-0.00000401"},{"REV_AT_EPOCH":"12122","BSTAR":"0.00004022100000","FILE":"3500539","COUNTRY_CODE":"US","CLASSIFICATION_TYPE":"U","APOAPSIS":"548.263","MEAN_MOTION_DDOT":"0.0000000000000","PERIAPSIS":"546.177","OBJECT_TYPE":"PAYLOAD","MEAN_ANOMALY":"285.4294","TIME_SYSTEM":"UTC","SEMIMAJOR_AXIS":"6925.355","REF_FRAME":"TEME","NORAD_CAT_ID":"45589","ECCENTRICITY":"0.00015060","TLE_LINE2":"2 45589  53.0556  40.9571 0001506  74.6861 285.4294 15.06397782121227","TLE_LINE1":"1 45589U 20025BL  22174.35465694  .00000318  00000-0  40221-4 0  9993","OBJECT_NAME":"STARLINK-1364","DECAY_DATE":null,"SITE":"AFETR","MEAN_MOTION":"15.06397782","ARG_OF_PERICENTER":"74.6861","GP_ID":"206682446","OBJECT_ID":"2020-025BL","CENTER_NAME":"EARTH","EPHEMERIS_TYPE":"0","ELEMENT_SET_NO":"999","LAUNCH_DATE":"2020-04-22","MEAN_MOTION_DOT":"0.00000318","EPOCH":"2022-06-23T08:30:42.359616","RCS_SIZE":"LARGE","MEAN_ELEMENT_THEORY":"SGP4","RA_OF_ASC_NODE":"40.9571","PERIOD":"95.592","INCLINATION":"53.0556"},{"LAUNCH_DATE":"2020-04-22","ELEMENT_SET_NO":"999","EPHEMERIS_TYPE":"0","CENTER_NAME":"EARTH","ARG_OF_PERICENTER":"60.8493","GP_ID":"206690384","OBJECT_ID":"2020-025BM","SITE":"AFETR","MEAN_MOTION":"15.06397663","DECAY_DATE":null,"OBJECT_NAME":"STARLINK-1365","TLE_LINE1":"1 45590U 20025BM  22174.70206400 -.00000251  00000-0  20854-5 0  9990","TLE_LINE2":"2 45590  53.0566  69.4060 0001844  60.8493 299.2680 15.06397663120254","INCLINATION":"53.0566","PERIOD":"95.592","RA_OF_ASC_NODE":"69.4060","MEAN_ELEMENT_THEORY":"SGP4","EPOCH":"2022-06-23T16:50:58.329600","RCS_SIZE":"LARGE","MEAN_MOTION_DOT":"-0.00000251","MEAN_ANOMALY":"299.2680","OBJECT_TYPE":"PAYLOAD","PERIAPSIS":"545.944","MEAN_MOTION_DDOT":"0.0000000000000","APOAPSIS":"548.498","CLASSIFICATION_TYPE":"U","COUNTRY_CODE":"US","FILE":"3500647","BSTAR":"0.00000208540000","REV_AT_EPOCH":"12025","ECCENTRICITY":"0.00018440","NORAD_CAT_ID":"45590","REF_FRAME":"TEME","SEMIMAJOR_AXIS":"6925.356","TIME_SYSTEM":"UTC"},{"APOAPSIS":"548.203","PERIAPSIS":"546.230","MEAN_MOTION_DDOT":"0.0000000000000","OBJECT_TYPE":"PAYLOAD","MEAN_ANOMALY":"296.6374","REV_AT_EPOCH":"11412","BSTAR":"0.00007136100000","FILE":"3500697","COUNTRY_CODE":"US","CLASSIFICATION_TYPE":"U","TIME_SYSTEM":"UTC","REF_FRAME":"TEME","SEMIMAJOR_AXIS":"6925.351","NORAD_CAT_ID":"45658","ECCENTRICITY":"0.00014250","SITE":"AFETR","MEAN_MOTION":"15.06399056","ARG_OF_PERICENTER":"63.4760","GP_ID":"206691339","OBJECT_ID":"2020-035B","EPHEMERIS_TYPE":"0","CENTER_NAME":"EARTH","ELEMENT_SET_NO":"999","LAUNCH_DATE":"2020-06-04","TLE_LINE2":"2 45658  53.0558  28.6122 0001425  63.4760 296.6374 15.06399056114125","TLE_LINE1":"1 45658U 20035B   22174.87529418  .00000782  00000-0  71361-4 0  9997","OBJECT_NAME":"STARLINK-1441","DECAY_DATE":null,"RCS_SIZE":"LARGE","EPOCH":"2022-06-23T21:00:25.417152","MEAN_ELEMENT_THEORY":"SGP4","RA_OF_ASC_NODE":"28.6122","PERIOD":"95.592","INCLINATION":"53.0558","MEAN_MOTION_DOT":"0.00000782"},{"ELEMENT_SET_NO":"999","EPHEMERIS_TYPE":"0","CENTER_NAME":"EARTH","LAUNCH_DATE":"2020-06-04","SITE":"AFETR","MEAN_MOTION":"15.06396813","GP_ID":"206691335","ARG_OF_PERICENTER":"87.3580","OBJECT_ID":"2020-035C","OBJECT_NAME":"STARLINK-1442","TLE_LINE1":"1 45659U 20035C   22174.87803829  .00000091  00000-0  25033-4 0  9997","DECAY_DATE":null,"TLE_LINE2":"2 45659  53.0564  28.6164 0001488  87.3580 272.7580 15.06396813114125","RA_OF_ASC_NODE":"28.6164","INCLINATION":"53.0564","PERIOD":"95.592","EPOCH":"2022-06-23T21:04:22.508256","RCS_SIZE":"LARGE","MEAN_ELEMENT_THEORY":"SGP4","MEAN_MOTION_DOT":"0.00000091","MEAN_ANOMALY":"272.7580","OBJECT_TYPE":"PAYLOAD","PERIAPSIS":"546.193","MEAN_MOTION_DDOT":"0.0000000000000","APOAPSIS":"548.254","COUNTRY_CODE":"US","CLASSIFICATION_TYPE":"U","BSTAR":"0.00002503300000","REV_AT_EPOCH":"11412","FILE":"3500697","REF_FRAME":"TEME","SEMIMAJOR_AXIS":"6925.358","ECCENTRICITY":"0.00014880","NORAD_CAT_ID":"45659","TIME_SYSTEM":"UTC"},{"MEAN_MOTION":"15.06393123","SITE":"AFETR","GP_ID":"206691352","OBJECT_ID":"2020-035D","ARG_OF_PERICENTER":"67.8618","EPHEMERIS_TYPE":"0","CENTER_NAME":"EARTH","ELEMENT_SET_NO":"999","LAUNCH_DATE":"2020-06-04","TLE_LINE2":"2 45660  53.0557  28.5713 0001382  67.8618 292.2517 15.06393123114124","TLE_LINE1":"1 45660U 20035D   22174.88635686  .00000384  00000-0  44666-4 0  9992","OBJECT_NAME":"STARLINK-1443","DECAY_DATE":null,"RCS_SIZE":"LARGE","EPOCH":"2022-06-23T21:16:21.232704","MEAN_ELEMENT_THEORY":"SGP4","RA_OF_ASC_NODE":"28.5713","PERIOD":"95.593","INCLINATION":"53.0557","MEAN_MOTION_DOT":"0.00000384","APOAPSIS":"548.192","MEAN_MOTION_DDOT":"0.0000000000000","PERIAPSIS":"546.278","OBJECT_TYPE":"PAYLOAD","MEAN_ANOMALY":"292.2517","REV_AT_EPOCH":"11412","BSTAR":"0.00004466600000","FILE":"3500681","COUNTRY_CODE":"US","CLASSIFICATION_TYPE":"U","TIME_SYSTEM":"UTC","SEMIMAJOR_AXIS":"6925.370","REF_FRAME":"TEME","NORAD_CAT_ID":"45660","ECCENTRICITY":"0.00013820"},{"LAUNCH_DATE":"2020-06-04","ELEMENT_SET_NO":"999","EPHEMERIS_TYPE":"0","CENTER_NAME":"EARTH","GP_ID":"206691597","OBJECT_ID":"2020-035E","ARG_OF_PERICENTER":"67.5364","SITE":"AFETR","MEAN_MOTION":"15.06393906","DECAY_DATE":null,"OBJECT_NAME":"STARLINK-1444","TLE_LINE1":"1 45661U 20035E   22174.83844168 -.00000546  00000-0 -17738-4 0  9997","TLE_LINE2":"2 45661  53.0564  28.7868 0001611  67.5364 292.5796 15.06393906114105","INCLINATION":"53.0564","PERIOD":"95.593","RA_OF_ASC_NODE":"28.7868","MEAN_ELEMENT_THEORY":"SGP4","RCS_SIZE":"LARGE","EPOCH":"2022-06-23T20:07:21.361152","MEAN_MOTION_DOT":"-0.00000546","OBJECT_TYPE":"PAYLOAD","MEAN_ANOMALY":"292.5796","MEAN_MOTION_DDOT":"0.0000000000000","PERIAPSIS":"546.117","APOAPSIS":"548.348","CLASSIFICATION_TYPE":"U","COUNTRY_CODE":"US","FILE":"3500681","BSTAR":"-0.00001773800000","REV_AT_EPOCH":"11410","ECCENTRICITY":"0.00016110","NORAD_CAT_ID":"45661","REF_FRAME":"TEME","SEMIMAJOR_AXIS":"6925.367","TIME_SYSTEM":"UTC"},{"TLE_LINE2":"2 45662  53.0564  28.7057 0001650  68.4983 291.6181 15.06404519114163","TLE_LINE1":"1 45662U 20035F   22174.85317645  .00002094  00000-0  15942-3 0  9997","OBJECT_NAME":"STARLINK-1445","DECAY_DATE":null,"SITE":"AFETR","MEAN_MOTION":"15.06404519","GP_ID":"206691600","OBJECT_ID":"2020-035F","ARG_OF_PERICENTER":"68.4983","EPHEMERIS_TYPE":"0","CENTER_NAME":"EARTH","ELEMENT_SET_NO":"999","LAUNCH_DATE":"2020-06-04","MEAN_MOTION_DOT":"0.00002094","RCS_SIZE":"LARGE","EPOCH":"2022-06-23T20:28:34.445280","MEAN_ELEMENT_THEORY":"SGP4","RA_OF_ASC_NODE":"28.7057","PERIOD":"95.592","INCLINATION":"53.0564","REV_AT_EPOCH":"11416","BSTAR":"0.00015942000000","FILE":"3500681","COUNTRY_CODE":"US","CLASSIFICATION_TYPE":"U","APOAPSIS":"548.342","PERIAPSIS":"546.057","MEAN_MOTION_DDOT":"0.0000000000000","MEAN_ANOMALY":"291.6181","OBJECT_TYPE":"PAYLOAD","TIME_SYSTEM":"UTC","SEMIMAJOR_AXIS":"6925.335","REF_FRAME":"TEME","NORAD_CAT_ID":"45662","ECCENTRICITY":"0.00016500"}];
